{"type": "FeatureCollection", "features": [ {"type": "Feature", "properties": {"norad_id": 37834, "name": "INTELSAT 18 (IS-18)", "group": "intelsat", "lat": 0.01048993080630934, "lon": -30.795586418639505, "alt_km": 35780.6578187353, "timestamp": "2025-12-21T03:56:50.522112+00:00", "meta": {"OBJECT_NAME": "INTELSAT 18 (IS-18)", "OBJECT_ID": "2011-056A", "EPOCH": "2025-12-20T14:05:11.189184", "MEAN_MOTION": 1.00272416, "ECCENTRICITY": 0.0001673, "INCLINATION": 0.0331, "RA_OF_ASC_NODE": 280.5281, "ARG_OF_PERICENTER": 6.0874, "MEAN_ANOMALY": 194.1, "EPHEMERIS_TYPE": 0, "CLASSIFICATION_TYPE": "U", "NORAD_CAT_ID": 37834, "ELEMENT_SET_NO": 999, "REV_AT_EPOCH": 5202, "BSTAR": 0, "MEAN_MOTION_DOT": 7.7e-07, "MEAN_MOTION_DDOT": 0}, "tle": {"line1": "1 37834U 11056A   25354.58693506  .00000077  00000+0  00000+0 0  9991", "line2": "2 37834   0.0331 280.5281 0001673   6.0874 194.1000  1.00272416 52029"}}, "geometry": {"type": "Point", "coordinates": [-30.795586418639505, 0.01048993080630934]}}, {"type": "Feature", "properties": {"norad_id": 38098, "name": "INTELSAT 22 (IS-22)", "group": "intelsat", "lat": -0.010736827569388426, "lon": -138.73653241407257, "alt_km": 35782.140918934034, "timestamp": "2025-12-21T03:56:50.522122+00:00", "meta": {"OBJECT_NAME": "INTELSAT 22 (IS-22)", "OBJECT_ID": "2012-011A", "EPOCH": "2025-12-20T19:39:43.555104", "MEAN_MOTION": 1.00270584, "ECCENTRICITY": 0.0001802, "INCLINATION": 0.015, "RA_OF_ASC_NODE": 42.2438, "ARG_OF_PERICENTER": 235.0498, "MEAN_ANOMALY": 179.378, "EPHEMERIS_TYPE": 0, "CLASSIFICATION_TYPE": "U", "NORAD_CAT_ID": 38098, "ELEMENT_SET_NO": 999, "REV_AT_EPOCH": 540, "BSTAR": 0, "MEAN_MOTION_DOT": -3.5e-07, "MEAN_MOTION_DDOT": 0}, "tle": {"line1": "1 38098U 12011A   25354.81925411 -.00000035  00000+0  00000+0 0  9990", "line2": "2 38098   0.0150  42.2438 0001802 235.0498 179.3780  1.00270584  5402"}}, "geometry": {"type": "Point", "coordinates": [-138.73653241407257, -0.010736827569388426]}}, {"type": "Feature", "properties": {"norad_id": 38356, "name": "INTELSAT 19 (IS-19)", "group": "intelsat", "lat": -0.028421469458141613, "lon": -44.78753715806333, "alt_km": 35778.58933845586, "timestamp": "2025-12-21T03:56:50.522133+00:00", "meta": {"OBJECT_NAME": "INTELSAT 19 (IS-19)", "OBJECT_ID": "2012-030A", "EPOCH": "2025-12-20T15:43:54.234048", "MEAN_MOTION": 1.00271302, "ECCENTRICITY": 0.0002747, "INCLINATION": 0.0112, "RA_OF_ASC_NODE": 5.2378, "ARG_OF_PERICENTER": 260.8268, "MEAN_ANOMALY": 225.3973, "EPHEMERIS_TYPE": 0, "CLASSIFICATION_TYPE": "U", "NORAD_CAT_ID": 38356, "ELEMENT_SET_NO": 999, "REV_AT_EPOCH": 4866, "BSTAR": 0, "MEAN_MOTION_DOT": -3.3e-07, "MEAN_MOTION_DDOT": 0}, "tle": {"line1": "1 38356U 12030A   25354.65548882 -.00000033  00000+0  00000+0 0  9991", "line2": "2 38356   0.0112   5.2378 0002747 260.8268 225.3973  1.00271302 48669"}}, "geometry": {"type": "Point", "coordinates": [-44.78753715806333, -0.028421469458141613]}}, {"type": "Feature", "properties": {"norad_id": 38740, "name": "INTELSAT 20 (IS-20)", "group": "intelsat", "lat": -0.003033531140100684, "lon": -142.30170429391626, "alt_km": 35774.776027886575, "timestamp": "2025-12-21T03:56:50.522144+00:00", "meta": {"OBJECT_NAME": "INTELSAT 20 (IS-20)", "OBJECT_ID": "2012-043A", "EPOCH": "2025-12-20T13:09:38.733408", "MEAN_MOTION": 1.00270452, "ECCENTRICITY": 0.0003401, "INCLINATION": 0.0106, "RA_OF_ASC_NODE": 95.8173, "ARG_OF_PERICENTER": 86.6493, "MEAN_ANOMALY": 172.8145, "EPHEMERIS_TYPE": 0, "CLASSIFICATION_TYPE": "U", "NORAD_CAT_ID": 38740, "ELEMENT_SET_NO": 999, "REV_AT_EPOCH": 4895, "BSTAR": 0, "MEAN_MOTION_DOT": -1e-08, "MEAN_MOTION_DDOT": 0}, "tle": {"line1": "1 38740U 12043A   25354.54836497 -.00000001  00000+0  00000+0 0  9997", "line2": "2 38740   0.0106  95.8173 0003401  86.6493 172.8145  1.00270452 48953"}}, "geometry": {"type": "Point", "coordinates": [-142.30170429391626, -0.003033531140100684]}}, {"type": "Feature", "properties": {"norad_id": 38749, "name": "INTELSAT 21 (IS-21)", "group": "intelsat", "lat": 0.025411664541180785, "lon": 91.18771951718315, "alt_km": 35792.221828658454, "timestamp": "2025-12-21T03:56:50.522154+00:00", "meta": {"OBJECT_NAME": "INTELSAT 21 (IS-21)", "OBJECT_ID": "2012-045A", "EPOCH": "2025-12-20T18:05:09.125376", "MEAN_MOTION": 1.00272251, "ECCENTRICITY": 0.0001494, "INCLINATION": 0.0248, "RA_OF_ASC_NODE": 289.9024, "ARG_OF_PERICENTER": 330.6782, "MEAN_ANOMALY": 42.291, "EPHEMERIS_TYPE": 0, "CLASSIFICATION_TYPE": "U", "NORAD_CAT_ID": 38749, "ELEMENT_SET_NO": 999, "REV_AT_EPOCH": 4873, "BSTAR": 0, "MEAN_MOTION_DOT": -2.61e-06, "MEAN_MOTION_DDOT": 0}, "tle": {"line1": "1 38749U 12045A   25354.75357784 -.00000261  00000+0  00000+0 0  9996", "line2": "2 38749   0.0248 289.9024 0001494 330.6782  42.2910  1.00272251 48738"}}, "geometry": {"type": "Point", "coordinates": [91.18771951718315, 0.025411664541180785]}}, {"type": "Feature", "properties": {"norad_id": 38867, "name": "INTELSAT 23 (IS-23)", "group": "intelsat", "lat": 0.026791642947793372, "lon": 96.21737032189809, "alt_km": 35789.185340744945, "timestamp": "2025-12-21T03:56:50.522165+00:00", "meta": {"OBJECT_NAME": "INTELSAT 23 (IS-23)", "OBJECT_ID": "2012-057A", "EPOCH": "2025-12-20T18:06:53.957088", "MEAN_MOTION": 1.00269499, "ECCENTRICITY": 6.22e-05, "INCLINATION": 0.0143, "RA_OF_ASC_NODE": 58.3081, "ARG_OF_PERICENTER": 241.304, "MEAN_ANOMALY": 8.7252, "EPHEMERIS_TYPE": 0, "CLASSIFICATION_TYPE": "U", "NORAD_CAT_ID": 38867, "ELEMENT_SET_NO": 999, "REV_AT_EPOCH": 4816, "BSTAR": 0, "MEAN_MOTION_DOT": -2.61e-06, "MEAN_MOTION_DDOT": 0}, "tle": {"line1": "1 38867U 12057A   25354.75479117 -.00000261  00000+0  00000+0 0  9995", "line2": "2 38867   0.0143  58.3081 0000622 241.3040   8.7252  1.00269499 48164"}}, "geometry": {"type": "Point", "coordinates": [96.21737032189809, 0.026791642947793372]}}, {"type": "Feature", "properties": {"norad_id": 39360, "name": "FM-6", "group": "intelsat", "lat": 0.0015484258551209577, "lon": 33.01606128068601, "alt_km": 35794.62052631844, "timestamp": "2025-12-21T03:56:50.522175+00:00", "meta": {"OBJECT_NAME": "FM-6", "OBJECT_ID": "2013-058A", "EPOCH": "2025-12-20T17:48:33.214176", "MEAN_MOTION": 1.00274895, "ECCENTRICITY": 0.000292, "INCLINATION": 0.0118, "RA_OF_ASC_NODE": 63.0611, "ARG_OF_PERICENTER": 110.3228, "MEAN_ANOMALY": 67.1689, "EPHEMERIS_TYPE": 0, "CLASSIFICATION_TYPE": "U", "NORAD_CAT_ID": 39360, "ELEMENT_SET_NO": 999, "REV_AT_EPOCH": 4428, "BSTAR": 0, "MEAN_MOTION_DOT": 6e-08, "MEAN_MOTION_DDOT": 0}, "tle": {"line1": "1 39360U 13058A   25354.74205109  .00000006  00000+0  00000+0 0  9999", "line2": "2 39360   0.0118  63.0611 0002920 110.3228  67.1689  1.00274895 44281"}}, "geometry": {"type": "Point", "coordinates": [33.01606128068601, 0.0015484258551209577]}}, {"type": "Feature", "properties": {"norad_id": 40271, "name": "INTELSAT 30 (IS-30)", "group": "intelsat", "lat": 0.026549995196612892, "lon": 54.13504198899769, "alt_km": 35780.06966116936, "timestamp": "2025-12-21T03:56:50.522186+00:00", "meta": {"OBJECT_NAME": "INTELSAT 30 (IS-30)", "OBJECT_ID": "2014-062A", "EPOCH": "2025-12-20T14:29:23.871264", "MEAN_MOTION": 1.00273635, "ECCENTRICITY": 0.000158, "INCLINATION": 0.0137, "RA_OF_ASC_NODE": 20.9198, "ARG_OF_PERICENTER": 67.8039, "MEAN_ANOMALY": 123.013, "EPHEMERIS_TYPE": 0, "CLASSIFICATION_TYPE": "U", "NORAD_CAT_ID": 40271, "ELEMENT_SET_NO": 999, "REV_AT_EPOCH": 500, "BSTAR": 0, "MEAN_MOTION_DOT": -1.28e-06, "MEAN_MOTION_DDOT": 0}, "tle": {"line1": "1 40271U 14062A   25354.60374851 -.00000128  00000+0  00000+0 0  9990", "line2": "2 40271   0.0137  20.9198 0001580  67.8039 123.0130  1.00273635  5005"}}, "geometry": {"type": "Point", "coordinates": [54.13504198899769, 0.026549995196612892]}}, {"type": "Feature", "properties": {"norad_id": 40333, "name": "DIRECTV 14", "group": "intelsat", "lat": 0.023913443056425378, "lon": 49.96866103986636, "alt_km": 35786.06894786722, "timestamp": "2025-12-21T03:56:50.522196+00:00", "meta": {"OBJECT_NAME": "DIRECTV 14", "OBJECT_ID": "2014-078B", "EPOCH": "2025-12-20T16:10:59.142432", "MEAN_MOTION": 1.00270571, "ECCENTRICITY": 2.68e-05, "INCLINATION": 0.0061, "RA_OF_ASC_NODE": 316.1173, "ARG_OF_PERICENTER": 165.3968, "MEAN_ANOMALY": 111.5212, "EPHEMERIS_TYPE": 0, "CLASSIFICATION_TYPE": "U", "NORAD_CAT_ID": 40333, "ELEMENT_SET_NO": 999, "REV_AT_EPOCH": 4025, "BSTAR": 0, "MEAN_MOTION_DOT": -1.02e-06, "MEAN_MOTION_DDOT": 0}, "tle": {"line1": "1 40333U 14078B   25354.67429563 -.00000102  00000+0  00000+0 0  9996", "line2": "2 40333   0.0061 316.1173 0000268 165.3968 111.5212  1.00270571 40255"}}, "geometry": {"type": "Point", "coordinates": [49.96866103986636, 0.023913443056425378]}}, {"type": "Feature", "properties": {"norad_id": 40663, "name": "DIRECTV 15", "group": "intelsat", "lat": 0.031256246249649795, "lon": 46.30402111154766, "alt_km": 35786.46447697593, "timestamp": "2025-12-21T03:56:50.522207+00:00", "meta": {"OBJECT_NAME": "DIRECTV 15", "OBJECT_ID": "2015-026A", "EPOCH": "2025-12-20T14:27:09.086400", "MEAN_MOTION": 1.0027054, "ECCENTRICITY": 3.4e-05, "INCLINATION": 0.0254, "RA_OF_ASC_NODE": 14.8027, "ARG_OF_PERICENTER": 122.9971, "MEAN_ANOMALY": 65.5425, "EPHEMERIS_TYPE": 0, "CLASSIFICATION_TYPE": "U", "NORAD_CAT_ID": 40663, "ELEMENT_SET_NO": 999, "REV_AT_EPOCH": 3867, "BSTAR": 0, "MEAN_MOTION_DOT": 0, "MEAN_MOTION_DDOT": 0}, "tle": {"line1": "1 40663U 15026A   25354.60218850  .00000000  00000+0  00000+0 0  9990", "line2": "2 40663   0.0254  14.8027 0000340 122.9971  65.5425  1.00270540 38672"}}, "geometry": {"type": "Point", "coordinates": [46.30402111154766, 0.031256246249649795]}}]}